SAUDISAT 2              
1 28371U 04025F   26131.89817697  .00000169  00000+0  48886-4 0  9993
2 28371  98.5510 130.9437 0025666  50.2117 310.1335 14.56661071160469
COSMOS 2407             
1 28380U 04028A   26131.92533311  .00000057  00000+0  42806-4 0  9990
2 28380  82.9580 101.6901 0039180 356.0383  16.5064 13.76331536 94892
COSMOS 2414             
1 28521U 05002A   26131.91459547  .00000065  00000+0  40973-4 0  9999
2 28521  82.9497  71.0806 0041563  73.3117 287.2602 13.87922718 78787
INMARSAT 4-F1           
1 28628U 05009A   26131.58786544  .00000045  00000+0  00000+0 0  9997
2 28628   5.1187  42.6761 0002861  11.0012 205.4668  1.00272457 77304
SJ-7                    
1 28737U 05024A   26131.51822925  .00004492  00000+0  20535-3 0  9991
2 28737  97.7317 160.6479 0016818 154.5778 205.6287 15.20976590142457
CUBESAT XI-V            
1 28895U 05043F   26131.91413184  .00000812  00000+0  13597-3 0  9996
2 28895  98.2945 286.7851 0013206 324.8432  35.1902 14.72533697 96413
HINODE (SOLAR-B)        
1 29479U 06041A   26131.80229825  .00000421  00000+0  80755-4 0  9996
2 29479  98.0565 148.4903 0018511  47.2209 313.0549 14.68569147 49532
SHIJIAN-6 02B (SJ-6 02B)
1 29506U 06046B   26131.95571053  .00001019  00000+0  83913-4 0  9994
2 29506  97.7159 161.2392 0011503 178.3818 181.7445 15.01270460 65302
DMSP 5D-3 F17 (USA 191) 
1 29522U 06050A   26131.96539427  .00000034  00000+0  40129-4 0  9995
2 29522  98.7387 139.2760 0010568 153.2918 206.8802 14.14986697  7302
LAPAN-TUBSAT            
1 29709U 07001A   26131.95868611  .00000741  00000+0  91502-4 0  9994
2 29709  98.1349 130.3681 0011011 308.7504  51.2725 14.85915046 45774
HAIYANG-1B              
1 31113U 07010A   26131.92605725  .00000052  00000+0  35737-4 0  9991
2 31113  98.3483 115.1811 0012592 313.0347  46.9782 14.31017761995442
COSMO-SKYMED 2          
1 32376U 07059A   26131.97540815  .00000244  00000+0  37257-4 0  9991
2 32376  97.8886 316.0989 0001455  89.9191 270.2189 14.82155327996637
CARTOSAT-2A             
1 32783U 08021A   26131.92408199  .00000132  00000+0  24500-4 0  9999
2 32783  97.7664 181.8662 0010575 224.6508 135.3853 14.79187054973442
CUTE-1.7+APD II (CO-65) 
1 32785U 08021C   26131.91692702  .00002685  00000+0  17346-3 0  9999
2 32785  97.8260 112.5963 0009974 143.1813 217.0102 15.09100600979725
SEEDS II (CO-66)        
1 32791U 08021J   26131.88709054  .00011599  00000+0  38377-3 0  9992
2 32791  97.7527 128.0909 0005042  86.6235 273.5582 15.31494947981738
YUBILEINY (RS30)        
1 32953U 08025A   26131.96381205 -.00000054  00000+0 -46029-3 0  9998
2 32953  82.5071  17.9723 0020340  32.5459 327.6870 12.43177736815191
FENGYUN 3A              
1 32958U 08026A   26131.81865726  .00000031  00000+0  35095-4 0  9998
2 32958  98.6870  73.3360 0007780 228.3701 131.6810 14.19563303930247
HUANJING 1A (HJ-1A)     
1 33320U 08041A   26131.95661181  .00000028  00000+0  95647-5 0  9999
2 33320  97.6677 119.2019 0017368 257.1456 102.7818 14.83903116953036
HUANJING 1B (HJ-1B)     
1 33321U 08041B   26131.97705904  .00000062  00000+0  13843-4 0  9999
2 33321  97.6516 122.5013 0035143 304.0426  55.7453 14.83251901953041
SHIJIAN-6 03A (SJ-6 03A)
1 33408U 08053A   26131.96734257  .00003448  00000+0  17891-3 0  9997
2 33408  97.8444 164.0349 0012626 132.3402 227.8902 15.16795387957479
SHIJIAN-6 03B (SJ-6 03B)
1 33409U 08053B   26131.97961052  .00000619  00000+0  49072-4 0  9998
2 33409  97.8611 151.2716 0019925 158.1093 202.0988 15.04207143957309
