OBJECT_NAME,OBJECT_ID,EPOCH,MEAN_MOTION,ECCENTRICITY,INCLINATION,RA_OF_ASC_NODE,ARG_OF_PERICENTER,MEAN_ANOMALY,EPHEMERIS_TYPE,CLASSIFICATION_TYPE,NORAD_CAT_ID,ELEMENT_SET_NO,REV_AT_EPOCH,BSTAR,MEAN_MOTION_DOT,MEAN_MOTION_DDOT
SAUDISAT 2,2004-025F,2026-05-11T21:33:22.490208,14.56661071,.00256663,98.5510,130.9437,50.2117,310.1335,0,U,28371,999,16046,.48885954E-4,.169E-5,0
COSMOS 2407,2004-028A,2026-05-11T22:12:28.780704,13.76331536,.00391801,82.9580,101.6901,356.0383,16.5064,0,U,28380,999,9489,.42805886E-4,.57E-6,0
COSMOS 2414,2005-002A,2026-05-11T21:57:01.048608,13.87922718,.0041563,82.9497,71.0806,73.3117,287.2602,0,U,28521,999,7878,.40972537E-4,.65E-6,0
INMARSAT 4-F1,2005-009A,2026-05-11T14:06:31.574016,1.00272457,.0002861,5.1187,42.6761,11.0012,205.4668,0,U,28628,999,7730,0,.45E-6,0
SJ-7,2005-024A,2026-05-11T12:26:15.007200,15.20976590,.0016818,97.7317,160.6479,154.5778,205.6287,0,U,28737,999,14245,.20534603E-3,.4492E-4,0
CUBESAT XI-V,2005-043F,2026-05-11T21:56:20.990976,14.72533697,.00132062,98.2945,286.7851,324.8432,35.1902,0,U,28895,999,9641,.13596623E-3,.812E-5,0
HINODE (SOLAR-B),2006-041A,2026-05-11T19:15:18.568800,14.68569147,.00185113,98.0565,148.4903,47.2209,313.0549,0,U,29479,999,4953,.80755264E-4,.421E-5,0
SHIJIAN-6 02B (SJ-6 02B),2006-046B,2026-05-11T22:56:13.389792,15.01270460,.00115037,97.7159,161.2392,178.3818,181.7445,0,U,29506,999,6530,.83912979E-4,.1019E-4,0
DMSP 5D-3 F17 (USA 191),2006-050A,2026-05-11T23:10:10.064928,14.14986697,.00105685,98.7387,139.2760,153.2918,206.8802,0,U,29522,999,730,.40128952E-4,.34E-6,0
LAPAN-TUBSAT,2007-001A,2026-05-11T23:00:30.479904,14.85915046,.00110114,98.1349,130.3681,308.7504,51.2725,0,U,29709,999,4577,.91501936E-4,.741E-5,0
HAIYANG-1B,2007-010A,2026-05-11T22:13:31.346400,14.31017761,.00125929,98.3483,115.1811,313.0347,46.9782,0,U,31113,999,99544,.35736675E-4,.52E-6,0
COSMO-SKYMED 2,2007-059A,2026-05-11T23:24:35.264160,14.82155327,.00014551,97.8886,316.0989,89.9191,270.2189,0,U,32376,999,99663,.37257196E-4,.244E-5,0
CARTOSAT-2A,2008-021A,2026-05-11T22:10:40.683936,14.79187054,.00105758,97.7664,181.8662,224.6508,135.3853,0,U,32783,999,97344,.24500415E-4,.132E-5,0
CUTE-1.7+APD II (CO-65),2008-021C,2026-05-11T22:00:22.494528,15.09100600,.00099742,97.8260,112.5963,143.1813,217.0102,0,U,32785,999,97972,.17345683E-3,.2685E-4,0
SEEDS II (CO-66),2008-021J,2026-05-11T21:17:24.622656,15.31494947,.00050422,97.7527,128.0909,86.6235,273.5582,0,U,32791,999,98173,.38376923E-3,.11599E-3,0
YUBILEINY (RS30),2008-025A,2026-05-11T23:07:53.361120,12.43177736,.00203409,82.5071,17.9723,32.5459,327.6870,0,U,32953,999,81519,-.46028823E-3,-.54E-6,0
FENGYUN 3A,2008-026A,2026-05-11T19:38:51.987264,14.19563303,.000778,98.6870,73.3360,228.3701,131.6810,0,U,32958,999,93024,.35095145E-4,.31E-6,0
HUANJING 1A (HJ-1A),2008-041A,2026-05-11T22:57:31.260384,14.83903116,.00173683,97.6677,119.2019,257.1456,102.7818,0,U,33320,999,95303,.956468E-5,.28E-6,0
HUANJING 1B (HJ-1B),2008-041B,2026-05-11T23:26:57.901056,14.83251901,.00351434,97.6516,122.5013,304.0426,55.7453,0,U,33321,999,95304,.13842569E-4,.62E-6,0
SHIJIAN-6 03A (SJ-6 03A),2008-053A,2026-05-11T23:12:58.398048,15.16795387,.00126262,97.8444,164.0349,132.3402,227.8902,0,U,33408,999,95747,.17890967E-3,.3448E-4,0
SHIJIAN-6 03B (SJ-6 03B),2008-053B,2026-05-11T23:30:38.348928,15.04207143,.00199258,97.8611,151.2716,158.1093,202.0988,0,U,33409,999,95730,.49071985E-4,.619E-5,0
